{
  "type": "FeatureCollection",
  "features": [
    {
      "type": "Feature",
      "properties": {
        "norad_id": 55973,
        "name": "TIANMU-1 03",
        "group": "weather",
        "lat": -58.14423984407999,
        "lon": -44.67586865672091,
        "alt_km": 453.7976949305048,
        "timestamp": "2025-12-10T23:33:12.473420+00:00",
        "meta_object_name": "TIANMU-1 03",
        "meta_object_id": "2023-039A",
        "meta_epoch": "2025-12-10T14:43:36.967584",
        "meta_mean_motion": 15.40822592,
        "meta_eccentricity": 0.0004456,
        "meta_inclination": 97.5111,
        "meta_ra_of_asc_node": 147.2058,
        "meta_arg_of_pericenter": 67.0128,
        "meta_mean_anomaly": 293.1588,
        "meta_ephemeris_type": 0,
        "meta_classification_type": "U",
        "meta_norad_cat_id": 55973,
        "meta_element_set_no": 999,
        "meta_rev_at_epoch": 15173,
        "meta_bstar": 0.00056377224,
        "meta_mean_motion_dot": 0.00023071,
        "meta_mean_motion_ddot": 0,
        "tle_line1": "1 55973U 23039A   25344.61362231  .00023071  00000+0  56377-3 0  9991",
        "tle_line2": "2 55973  97.5111 147.2058 0004456  67.0128 293.1588 15.40822592151736"
      },
      "geometry": {
        "type": "Point",
        "coordinates": [
          -44.67586865672091,
          -58.14423984407999
        ]
      }
    },
    {
      "type": "Feature",
      "properties": {
        "norad_id": 55974,
        "name": "TIANMU-1 04",
        "group": "weather",
        "lat": -9.380193877412369,
        "lon": 148.02337911188468,
        "alt_km": 445.7311275637303,
        "timestamp": "2025-12-10T23:33:12.473428+00:00",
        "meta_object_name": "TIANMU-1 04",
        "meta_object_id": "2023-039B",
        "meta_epoch": "2025-12-10T14:14:41.131968",
        "meta_mean_motion": 15.41157031,
        "meta_eccentricity": 0.00051389,
        "meta_inclination": 97.5043,
        "meta_ra_of_asc_node": 146.3772,
        "meta_arg_of_pericenter": 62.7665,
        "meta_mean_anomaly": 297.4105,
        "meta_ephemeris_type": 0,
        "meta_classification_type": "U",
        "meta_norad_cat_id": 55974,
        "meta_element_set_no": 999,
        "meta_rev_at_epoch": 15173,
        "meta_bstar": 0.00053774937,
        "meta_mean_motion_dot": 0.00022247,
        "meta_mean_motion_ddot": 0,
        "tle_line1": "1 55974U 23039B   25344.59353162  .00022247  00000+0  53775-3 0  9995",
        "tle_line2": "2 55974  97.5043 146.3772 0005138  62.7665 297.4105 15.41157031151732"
      },
      "geometry": {
        "type": "Point",
        "coordinates": [
          148.02337911188468,
          -9.380193877412369
        ]
      }
    },
    {
      "type": "Feature",
      "properties": {
        "norad_id": 55975,
        "name": "TIANMU-1 05",
        "group": "weather",
        "lat": 24.632667768298578,
        "lon": 143.8003737098869,
        "alt_km": 441.59984619710485,
        "timestamp": "2025-12-10T23:33:12.473438+00:00",
        "meta_object_name": "TIANMU-1 05",
        "meta_object_id": "2023-039C",
        "meta_epoch": "2025-12-10T14:05:38.412960",
        "meta_mean_motion": 15.40780325,
        "meta_eccentricity": 0.00043633,
        "meta_inclination": 97.509,
        "meta_ra_of_asc_node": 146.863,
        "meta_arg_of_pericenter": 84.097,
        "meta_mean_anomaly": 276.0774,
        "meta_ephemeris_type": 0,
        "meta_classification_type": "U",
        "meta_norad_cat_id": 55975,
        "meta_element_set_no": 999,
        "meta_rev_at_epoch": 15171,
        "meta_bstar": 0.00053553253,
        "meta_mean_motion_dot": 0.00021877,
        "meta_mean_motion_ddot": 0,
        "tle_line1": "1 55975U 23039C   25344.58725015  .00021877  00000+0  53553-3 0  9997",
        "tle_line2": "2 55975  97.5090 146.8630 0004363  84.0970 276.0774 15.40780325151718"
      },
      "geometry": {
        "type": "Point",
        "coordinates": [
          143.8003737098869,
          24.632667768298578
        ]
      }
    },
    {
      "type": "Feature",
      "properties": {
        "norad_id": 55976,
        "name": "TIANMU-1 06",
        "group": "weather",
        "lat": -21.643723470323273,
        "lon": 150.73215203487865,
        "alt_km": 448.4842782672704,
        "timestamp": "2025-12-10T23:33:12.473448+00:00",
        "meta_object_name": "TIANMU-1 06",
        "meta_object_id": "2023-039D",
        "meta_epoch": "2025-12-10T14:17:55.296096",
        "meta_mean_motion": 15.41209879,
        "meta_eccentricity": 0.00047021,
        "meta_inclination": 97.51,
        "meta_ra_of_asc_node": 147.335,
        "meta_arg_of_pericenter": 79.7664,
        "meta_mean_anomaly": 280.4112,
        "meta_ephemeris_type": 0,
        "meta_classification_type": "U",
        "meta_norad_cat_id": 55976,
        "meta_element_set_no": 999,
        "meta_rev_at_epoch": 15173,
        "meta_bstar": 0.00054375736,
        "meta_mean_motion_dot": 0.00022535,
        "meta_mean_motion_ddot": 0,
        "tle_line1": "1 55976U 23039D   25344.59577889  .00022535  00000+0  54376-3 0  9999",
        "tle_line2": "2 55976  97.5100 147.3350 0004702  79.7664 280.4112 15.41209879151732"
      },
      "geometry": {
        "type": "Point",
        "coordinates": [
          150.73215203487865,
          -21.643723470323273
        ]
      }
    },
    {
      "type": "Feature",
      "properties": {
        "norad_id": 56232,
        "name": "FENGYUN 3G",
        "group": "weather",
        "lat": -25.614874915451693,
        "lon": -147.2204419883203,
        "alt_km": 416.0450546889815,
        "timestamp": "2025-12-10T23:33:12.473458+00:00",
        "meta_object_name": "FENGYUN 3G",
        "meta_object_id": "2023-055A",
        "meta_epoch": "2025-12-10T05:10:32.979072",
        "meta_mean_motion": 15.53405628,
        "meta_eccentricity": 0.000929,
        "meta_inclination": 49.9931,
        "meta_ra_of_asc_node": 240.4781,
        "meta_arg_of_pericenter": 136.4608,
        "meta_mean_anomaly": 223.7095,
        "meta_ephemeris_type": 0,
        "meta_classification_type": "U",
        "meta_norad_cat_id": 56232,
        "meta_element_set_no": 999,
        "meta_rev_at_epoch": 15063,
        "meta_bstar": 0.00066182,
        "meta_mean_motion_dot": 0.00042561,
        "meta_mean_motion_ddot": 0,
        "tle_line1": "1 56232U 23055A   25344.21565948  .00042561  00000+0  66182-3 0  9994",
        "tle_line2": "2 56232  49.9931 240.4781 0009290 136.4608 223.7095 15.53405628150631"
      },
      "geometry": {
        "type": "Point",
        "coordinates": [
          -147.2204419883203,
          -25.614874915451693
        ]
      }
    },
    {
      "type": "Feature",
      "properties": {
        "norad_id": 57166,
        "name": "METEOR-M2 3",
        "group": "weather",
        "lat": -57.225668020619096,
        "lon": -155.1056788430644,
        "alt_km": 820.8916176393423,
        "timestamp": "2025-12-10T23:33:12.473467+00:00",
        "meta_object_name": "METEOR-M2 3",
        "meta_object_id": "2023-091A",
        "meta_epoch": "2025-12-10T14:00:23.650848",
        "meta_mean_motion": 14.24025756,
        "meta_eccentricity": 0.00040318,
        "meta_inclination": 98.6381,
        "meta_ra_of_asc_node": 38.1606,
        "meta_arg_of_pericenter": 14.8889,
        "meta_mean_anomaly": 345.2408,
        "meta_ephemeris_type": 0,
        "meta_classification_type": "U",
        "meta_norad_cat_id": 57166,
        "meta_element_set_no": 999,
        "meta_rev_at_epoch": 12767,
        "meta_bstar": 3.9136322e-05,
        "meta_mean_motion_dot": 4.6e-07,
        "meta_mean_motion_ddot": 0,
        "tle_line1": "1 57166U 23091A   25344.58360707  .00000046  00000+0  39136-4 0  9999",
        "tle_line2": "2 57166  98.6381  38.1606 0004031  14.8889 345.2408 14.24025756127677"
      },
      "geometry": {
        "type": "Point",
        "coordinates": [
          -155.1056788430644,
          -57.225668020619096
        ]
      }
    },
    {
      "type": "Feature",
      "properties": {
        "norad_id": 57399,
        "name": "TIANMU-1 07",
        "group": "weather",
        "lat": 51.401965525089935,
        "lon": -135.90472736997518,
        "alt_km": 474.1555072488736,
        "timestamp": "2025-12-10T23:33:12.473477+00:00",
        "meta_object_name": "TIANMU-1 07",
        "meta_object_id": "2023-101A",
        "meta_epoch": "2025-12-10T13:33:57.267360",
        "meta_mean_motion": 15.28019459,
        "meta_eccentricity": 0.00056134,
        "meta_inclination": 97.2877,
        "meta_ra_of_asc_node": 34.4627,
        "meta_arg_of_pericenter": 87.115,
        "meta_mean_anomaly": 273.0733,
        "meta_ephemeris_type": 0,
        "meta_classification_type": "U",
        "meta_norad_cat_id": 57399,
        "meta_element_set_no": 999,
        "meta_rev_at_epoch": 13282,
        "meta_bstar": 0.00041975253,
        "meta_mean_motion_dot": 0.00011411,
        "meta_mean_motion_ddot": 0,
        "tle_line1": "1 57399U 23101A   25344.56524615  .00011411  00000+0  41975-3 0  9998",
        "tle_line2": "2 57399  97.2877  34.4627 0005613  87.1150 273.0733 15.28019459132823"
      },
      "geometry": {
        "type": "Point",
        "coordinates": [
          -135.90472736997518,
          51.401965525089935
        ]
      }
    }
  ]
}